KUIPER-00157            
1 65970U 25228Z   25357.65223258  .00038212  00000+0  10630-2 0  9998
2 65970  51.8810 327.9494 0007815  69.3975 290.7849 15.36437581 12094
